IRIDIUM 116             
1 43072U 17083C   24184.71559306  .00000228  00000+0  74424-4 0  9996
2 43072  86.3958 260.5713 0002349  93.6307 266.5157 14.34218082341763
IRIDIUM 130             
1 43073U 17083D   24184.82341808 -.00000049  00000+0 -24701-4 0  9991
2 43073  86.3968 260.7321 0002253  95.0810 265.0643 14.34216839341729
IRIDIUM 151             
1 43074U 17083E   24184.72827844 -.00000003  00000+0 -80978-5 0  9999
2 43074  86.3962 260.6075 0001984  90.6952 269.4471 14.34216914341739
IRIDIUM 134             
1 43075U 17083F   24184.90587143  .00000461  00000+0  15768-3 0  9994
2 43075  86.3961 260.5318 0002457  95.2216 264.9260 14.34217327341722
IRIDIUM 137             
1 43076U 17083G   24184.63947759  .00000260  00000+0  85951-4 0  9997
2 43076  86.3963 260.7214 0002317  82.0266 278.1193 14.34219858341752
IRIDIUM 141             
1 43077U 17083H   24184.77267508  .00000720  00000+0  25004-3 0  9993
2 43077  86.3957 260.5366 0002136  97.2045 262.9394 14.34214498341775
IRIDIUM 153             
1 43078U 17083J   24184.51554300  .00000249  00000+0  81967-4 0  9992
2 43078  86.3970 229.1111 0001952 104.8850 255.2562 14.34217933342842
IRIDIUM 131             
1 43079U 17083K   24184.82975742  .00000018  00000+0 -60765-6 0  9994
2 43079  86.3964 260.6514 0002040  91.2789 268.8640 14.34218906341715
